{
  "norad_id": 65494,
  "name": "STARLINK-35223",
  "history": [
    {
      "epoch": "2026-03-28T17:21:26.659872Z",
      "apogee_km": 475.7685271292521,
      "perigee_km": 474.5594677672825,
      "latitude_deg": 1.948069208001053e-05,
      "longitude_deg": 96.12495254174699,
      "height_km": 476.0824830111343,
      "semi_major_axis_km": 6853.3009974482675,
      "eccentricity": 8.821e-05,
      "inclination_deg": 53.1599,
      "raan_deg": 182.6256,
      "arg_perigee_deg": 91.886,
      "mean_anomaly_deg": 268.2242,
      "mean_motion_rev_day": 15.30217105
    }
  ]
}